EAGLESAT 1              
1 43018U 17073F   24089.50058284  .00020243  00000+0  10543-2 0  9994
2 43018  97.6053 335.4040 0186260 176.0870 184.1865 15.02196400344113
JILIN-1 04              
1 43022U 17074A   24089.55151786  .00009929  00000+0  47706-3 0  9996
2 43022  97.4848 181.9370 0006779 179.8972 180.2265 15.19013690350438
JILIN-1 05              
1 43023U 17074B   24089.56074275  .00009754  00000+0  46798-3 0  9991
2 43023  97.4871 182.4385 0006620 195.0274 165.0765 15.19070165350444
JILIN-1 06              
1 43024U 17074C   24089.58739753  .00007333  00000+0  37561-3 0  9992
2 43024  97.4867 181.5326 0009117 203.1575 156.9249 15.16851371350397
IRIDIUM 116             
1 43072U 17083C   24089.55131950  .00000039  00000+0  70246-5 0  9992
2 43072  86.3921 300.3862 0002144  84.9786 275.1654 14.34212974328125
IRIDIUM 130             
1 43073U 17083D   24089.51961165  .00000673  00000+0  23332-3 0  9994
2 43073  86.3937 300.5963 0002249  89.4624 270.6829 14.34214406328063
LKW-2                   
1 43080U 17084A   24089.56450292  .00012120  00000+0  50987-3 0  9998
2 43080  97.2324 152.9828 0006969 196.3598 163.7415 15.23508791348395
SUPERVIEW-1 03          
1 43099U 18002A   24089.53448117  .00022408  00000+0  72893-3 0  9999
2 43099  97.3784 169.8947 0003202 356.6769   3.4451 15.31886512344400
SUPERVIEW-1 04          
1 43100U 18002B   24089.51631976  .00025120  00000+0  79471-3 0  9990
2 43100  97.3805 170.3218 0001195 151.5356 208.5952 15.32760737344414
CARTOSAT-2F             
1 43111U 18004A   24089.60930179  .00008761  00000+0  41913-3 0  9993
2 43111  97.4399 150.3326 0002055 264.9319  95.1681 15.19214313344415
CARBONITE 2             
1 43115U 18004E   24089.16920836  .00017934  00000+0  46911-3 0  9992
2 43115  97.2750 160.6504 0007001 193.4505 166.6555 15.38774880345628
CORVUS BC3              
1 43118U 18004H   24089.47562529  .00104598  00000+0  99756-3 0  9998
2 43118  97.2923 172.4462 0005206 176.4922 183.6376 15.66429659346359
LKW-3                   
1 43146U 18006A   24089.61077877  .00014531  00000+0  61938-3 0  9992
2 43146  97.5584 223.4406 0001639 185.2141 174.9079 15.23050783345182
ASNARO-2                
1 43152U 18007A   24089.55289869  .00017627  00000+0  76503-3 0  9992
2 43152  97.4187  97.3367 0001990  95.8813 264.2650 15.22390187344230
XIAOXIANG-2             
1 43155U 18008A   24089.60358728  .00065920  00000+0  13496-2 0  9993
2 43155  97.2491 142.8793 0006941  13.3329 346.8102 15.45848906342550
ZHOU ENLAI              
1 43156U 18008B   24089.59833903  .00087663  00000+0  15228-2 0  9998
2 43156  97.2530 143.9496 0004660  11.5432 348.5926 15.50511110342539
KIPP                    
1 43157U 18008C   24089.59315709  .00743358  00000+0  39653-2 0  9996
2 43157  97.2481 147.0666 0006311 281.7251  78.3307 15.78415008342668
QUANTUTONG 1            
1 43158U 18008D   24089.09783456  .00043164  00000+0  11317-2 0  9995
2 43158  97.2645 137.9801 0007100  29.5648 330.5997 15.38520698342122
JILIN-1 07              
1 43159U 18008E   24089.58532603  .00009509  00000+0  47597-3 0  9991
2 43159  97.2547 126.1123 0012952  56.3740 303.8728 15.17530699341496
JILIN-1 08              
1 43160U 18008F   24089.58331278  .00009387  00000+0  47344-3 0  9992
2 43160  97.2553 125.8582 0009902  69.9955 290.2344 15.17297661341480
LEMUR-2-URAMCHANSOL     
1 43183U 18014D   24089.48298037  .00017233  00000+0  99357-3 0  9998
2 43183  97.5959 354.3810 0011358 251.9441 108.0552 15.12392210336787
LEMUR-2-KADI            
1 43184U 18014E   24089.22936285  .00013745  00000+0  82986-3 0  9999
2 43184  97.5774 352.5131 0009799 238.9841 121.0427 15.10789441336683
S-NET D                 
1 43186U 18014G   24089.28338480  .00007021  00000+0  51959-3 0  9996
2 43186  97.5960 352.5662 0009494 279.0084  81.0067 15.03436267336499
S-NET B                 
1 43187U 18014H   24089.28529442  .00006837  00000+0  50610-3 0  9994
2 43187  97.5964 352.5122 0010360 274.0041  86.0000 15.03428740336496
S-NET A                 
1 43188U 18014J   24089.21802897  .00006917  00000+0  51189-3 0  9997
2 43188  97.5970 352.5522 0010208 274.9418  85.0642 15.03435559336482
S-NET C                 
1 43189U 18014K   24089.28751635  .00006706  00000+0  49634-3 0  9996
2 43189  97.5981 352.5518 0011946 265.8990  94.0871 15.03430361335045
GOMX-4B                 
1 43196U 18015E   24089.42925514  .00049316  00000+0  76307-3 0  9991
2 43196  97.6046 257.5678 0009750 245.9340 114.0893 15.53867739343106
GOMX-4A                 
1 43197U 18015F   24089.56611447  .00068545  00000+0  82171-3 0  9995
2 43197  97.5976 261.7679 0008834 237.5163 122.5240 15.60667758343408
PAZ                     
1 43215U 18020A   24089.52015108  .00004755  00000+0  22936-3 0  9996
2 43215  97.4460  97.5153 0001756  84.0109 276.1326 15.19167686338087
GOES 17                 
1 43226U 18022A   24089.52989175 -.00000081  00000+0  00000+0 0  9997
2 43226   0.0442  21.9438 0001045 329.6140 281.9327  1.00272066 22304
LKW-4                   
1 43236U 18025A   24089.63918688  .00015694  00000+0  65934-3 0  9990
2 43236  97.5451 221.3694 0002850 164.0294 196.1033 15.23522338335591
ZHUHAI-1 OHS-01         
1 43439U 18040A   24089.55476911  .00037287  00000+0  83276-3 0  9992
2 43439  97.1426 137.5988 0007209 221.0665 139.0041 15.43412096329237
ZHUHAI-1 OVS-02         
1 43440U 18040B   24089.56209164  .00030693  00000+0  71963-3 0  9993
2 43440  97.1475 137.7448 0006051 236.7343 123.3325 15.42003416329227
ZHUHAI-1 OHS-02         
1 43441U 18040C   24089.56000613  .00035026  00000+0  79306-3 0  9996
2 43441  97.1591 141.3520 0006123 254.1004 105.9569 15.43023262329247
ZHUHAI-1 OHS-04         
1 43443U 18040E   24089.58673014  .00038261  00000+0  83802-3 0  9991
2 43443  97.1476 138.9083 0003661 209.2895 150.8149 15.44006379329255
GAOFEN-6                
1 43484U 18048A   24089.54416067  .00001979  00000+0  29049-3 0  9992
2 43484  97.8678 165.9785 0009634 272.5230  87.4877 14.76579714313913
LUOJIA-1 01             
1 43485U 18048B   24089.56972121  .00004751  00000+0  62489-3 0  9999
2 43485  97.8773 169.7158 0009376 247.2987 112.7235 14.80625661314107
PAKTES 1A               
1 43529U 18056A   24089.58276344  .00004397  00000+0  43919-3 0  9996
2 43529  98.0228 210.1644 0023374 271.9757  87.8784 14.91835287310889
PRSS 1                  
1 43530U 18056B   24089.56446466  .00002234  00000+0  30991-3 0  9994
2 43530  97.8687 165.7935 0001573 104.7464 255.3922 14.78904841308623
HAIYANG-1C              
1 43609U 18068A   24089.51238986  .00000391  00000+0  15554-3 0  9995
2 43609  98.6125 158.2074 0008703 344.2905  15.8008 14.34130058291033
SSTL S1-4               
1 43618U 18071A   24089.58580526  .00002689  00000+0  25167-3 0  9999
2 43618  97.6141 338.4997 0006270   5.6556 354.4735 14.94884215301918
HAIYANG-2B              
1 43655U 18081A   24089.55852964  .00000010  00000+0  52552-4 0  9991
2 43655  99.3402  99.1833 0000341 217.6717 142.4411 13.79284233273319
CZ-4B R/B               
1 43656U 18081B   24089.48409251  .00000531  00000+0  17584-3 0  9994
2 43656  99.4514 289.0044 0207460  75.7266 286.6856 14.31164582283455
CFOSAT                  
1 43662U 18083A   24089.56195277  .00007583  00000+0  39474-3 0  9998
2 43662  97.3817 106.3230 0001362  97.5422 262.5966 15.16298463299836
2018-083B               
1 43663U 18083B   24089.54325917  .00047418  00000+0  94926-3 0  9997
2 43663  97.3401 121.1728 0006329 163.1678 196.9782 15.46593172300875
2018-083C               
1 43664U 18083C   24089.56738817  .00027416  00000+0  74900-3 0  9993
2 43664  97.3530 116.1649 0007993 178.1738 181.9538 15.37338303300670
2018-083D               
1 43665U 18083D   24089.53873026  .00028685  00000+0  76664-3 0  9991
2 43665  97.3528 117.0230 0008854 179.6588 180.4664 15.38002646300718
2018-083G               
1 43668U 18083G   24089.56239111  .00058179  00000+0  10375-2 0  9995
2 43668  97.3442 120.2084 0006518 157.2321 202.9220 15.49874943300998
CHANGSHAGAOXIN (TY 4-01)
1 43669U 18083H   24089.21002264  .00204603  00000+0  15412-2 0  9997
2 43669  97.3373 125.4315 0005213 159.8545 200.2925 15.71889294301177
TEN-KOH                 
1 43677U 18084G   24089.39430686  .00003865  00000+0  35645-3 0  9997
2 43677  98.0511 240.6820 0013422 282.6319  77.3399 14.95224348294799
DIWATA-2B               
1 43678U 18084H   24089.56352591  .00003606  00000+0  33684-3 0  9999
2 43678  98.0603 245.2949 0008162 297.1335  62.9052 14.94808059295028
STARS-AO                
1 43679U 18084J   24089.37919412  .00008407  00000+0  66804-3 0  9994
2 43679  98.0535 250.3805 0005656 350.2729   9.8383 15.00711278295294
AUTCUBE 2               
1 43681U 18084K   24089.39728327  .00006827  00000+0  57447-3 0  9999
2 43681  98.0588 247.5317 0006430 292.1670  67.8869 14.98577762295120
METOP-C                 
1 43689U 18087A   24089.60204286  .00000297  00000+0  15563-3 0  9995
2 43689  98.6883 149.8475 0001484 329.6324  30.4768 14.21506647279819
ES'HAIL 2               
1 43700U 18090A   24089.54494105  .00000154  00000+0  00000+0 0  9995
2 43700   0.0187 162.5315 0001373 238.6702   8.2054  1.00272878 19551
TIANPING 1B             
1 43714U 18094E   24089.59017544  .00017797  00000+0  46727-3 0  9998
2 43714  97.3768 107.1212 0009088 185.9989 174.1149 15.38646036298467
MOHAMMED VI-B           
1 43717U 18095A   24089.59284370  .00001988  00000+0  28864-3 0  9992
2 43717  97.9399 162.5048 0001381 104.6356 255.5007 14.77098396288673
HYSIS                   
1 43719U 18096A   24089.54525275  .00002878  00000+0  39931-3 0  9998
2 43719  97.8729 155.2067 0001476 205.3460 154.7679 14.78686424287772
COSMOS 2530             
1 43751U 18097A   24089.56950296  .00000065  00000+0  40124-3 0  9994
2 43751  82.5207   4.8065 0020261   5.0628 355.0652 12.42878069241719
